{
  "type": "FeatureCollection",
  "features": [
    {
      "type": "Feature",
      "properties": {
        "norad_id": 66647,
        "name": "COSMOS 2597 (RODNIK-S 22)",
        "group": "last-30-days",
        "lat": -10.274417687038857,
        "lon": 100.10307302791922,
        "alt_km": 1499.9092339807657,
        "timestamp": "2025-12-25T03:55:54.952164+00:00",
        "meta_object_name": "COSMOS 2597 (RODNIK-S 22)",
        "meta_object_id": "2025-273A",
        "meta_epoch": "2025-12-24T19:10:34.756032",
        "meta_mean_motion": 12.41952268,
        "meta_eccentricity": 0.0007595,
        "meta_inclination": 82.4994,
        "meta_ra_of_asc_node": 278.9612,
        "meta_arg_of_pericenter": 257.7264,
        "meta_mean_anomaly": 102.2965,
        "meta_ephemeris_type": 0,
        "meta_classification_type": "U",
        "meta_norad_cat_id": 66647,
        "meta_element_set_no": 999,
        "meta_rev_at_epoch": 363,
        "meta_bstar": 0.00026454,
        "meta_mean_motion_dot": 4.6e-07,
        "meta_mean_motion_ddot": 0,
        "tle_line1": "1 66647U 25273A   25358.79901338  .00000046  00000+0  26454-3 0  9994",
        "tle_line2": "2 66647  82.4994 278.9612 0007595 257.7264 102.2965 12.41952268  3638"
      },
      "geometry": {
        "type": "Point",
        "coordinates": [
          100.10307302791922,
          -10.274417687038857
        ]
      }
    },
    {
      "type": "Feature",
      "properties": {
        "norad_id": 66648,
        "name": "COSMOS 2598 (RODNIK-S 23)",
        "group": "last-30-days",
        "lat": -74.71398630021994,
        "lon": -110.07915938493964,
        "alt_km": 1498.6920136882782,
        "timestamp": "2025-12-25T03:55:54.952175+00:00",
        "meta_object_name": "COSMOS 2598 (RODNIK-S 23)",
        "meta_object_id": "2025-273B",
        "meta_epoch": "2025-12-24T20:37:05.649888",
        "meta_mean_motion": 12.43233613,
        "meta_eccentricity": 0.000819,
        "meta_inclination": 82.5032,
        "meta_ra_of_asc_node": 278.9102,
        "meta_arg_of_pericenter": 207.9473,
        "meta_mean_anomaly": 152.1168,
        "meta_ephemeris_type": 0,
        "meta_classification_type": "U",
        "meta_norad_cat_id": 66648,
        "meta_element_set_no": 999,
        "meta_rev_at_epoch": 364,
        "meta_bstar": 0.00018088,
        "meta_mean_motion_dot": 3.5e-07,
        "meta_mean_motion_ddot": 0,
        "tle_line1": "1 66648U 25273B   25358.85909317  .00000035  00000+0  18088-3 0  9999",
        "tle_line2": "2 66648  82.5032 278.9102 0008190 207.9473 152.1168 12.43233613  3646"
      },
      "geometry": {
        "type": "Point",
        "coordinates": [
          -110.07915938493964,
          -74.71398630021994
        ]
      }
    },
    {
      "type": "Feature",
      "properties": {
        "norad_id": 66649,
        "name": "COSMOS 2599 (RODNIK-S 24)",
        "group": "last-30-days",
        "lat": 43.60380581981565,
        "lon": 91.5677634521264,
        "alt_km": 1499.566573558891,
        "timestamp": "2025-12-25T03:55:54.952199+00:00",
        "meta_object_name": "COSMOS 2599 (RODNIK-S 24)",
        "meta_object_id": "2025-273C",
        "meta_epoch": "2025-12-24T19:27:47.568672",
        "meta_mean_motion": 12.41152337,
        "meta_eccentricity": 0.0006343,
        "meta_inclination": 82.5051,
        "meta_ra_of_asc_node": 278.9883,
        "meta_arg_of_pericenter": 245.7233,
        "meta_mean_anomaly": 114.3184,
        "meta_ephemeris_type": 0,
        "meta_classification_type": "U",
        "meta_norad_cat_id": 66649,
        "meta_element_set_no": 999,
        "meta_rev_at_epoch": 363,
        "meta_bstar": 0.00043347,
        "meta_mean_motion_dot": 6.8e-07,
        "meta_mean_motion_ddot": 0,
        "tle_line1": "1 66649U 25273C   25358.81096723  .00000068  00000+0  43347-3 0  9996",
        "tle_line2": "2 66649  82.5051 278.9883 0006343 245.7233 114.3184 12.41152337  3634"
      },
      "geometry": {
        "type": "Point",
        "coordinates": [
          91.5677634521264,
          43.60380581981565
        ]
      }
    },
    {
      "type": "Feature",
      "properties": {
        "norad_id": 66650,
        "name": "BEE-1000",
        "group": "last-30-days",
        "lat": 8.560424613501006,
        "lon": -75.04898875489735,
        "alt_km": 601.8660106542038,
        "timestamp": "2025-12-25T03:55:54.952218+00:00",
        "meta_object_name": "BEE-1000",
        "meta_object_id": "2025-274A",
        "meta_epoch": "2025-12-24T18:14:01.823712",
        "meta_mean_motion": 14.91700346,
        "meta_eccentricity": 0.0011078,
        "meta_inclination": 97.7405,
        "meta_ra_of_asc_node": 285.7275,
        "meta_arg_of_pericenter": 207.2837,
        "meta_mean_anomaly": 152.7801,
        "meta_ephemeris_type": 0,
        "meta_classification_type": "U",
        "meta_norad_cat_id": 66650,
        "meta_element_set_no": 999,
        "meta_rev_at_epoch": 419,
        "meta_bstar": 0.00017291,
        "meta_mean_motion_dot": 1.685e-05,
        "meta_mean_motion_ddot": 0,
        "tle_line1": "1 66650U 25274A   25358.75974333  .00001685  00000+0  17291-3 0  9999",
        "tle_line2": "2 66650  97.7405 285.7275 0011078 207.2837 152.7801 14.91700346  4192"
      },
      "geometry": {
        "type": "Point",
        "coordinates": [
          -75.04898875489735,
          8.560424613501006
        ]
      }
    },
    {
      "type": "Feature",
      "properties": {
        "norad_id": 66651,
        "name": "2025-274B",
        "group": "last-30-days",
        "lat": 20.506267525088546,
        "lon": -76.78822333604168,
        "alt_km": 599.9377033327191,
        "timestamp": "2025-12-25T03:55:54.952230+00:00",
        "meta_object_name": "2025-274B",
        "meta_object_id": "2025-274B",
        "meta_epoch": "2025-12-24T18:10:51.621024",
        "meta_mean_motion": 14.91882625,
        "meta_eccentricity": 0.0011275,
        "meta_inclination": 97.7402,
        "meta_ra_of_asc_node": 285.7287,
        "meta_arg_of_pericenter": 205.3112,
        "meta_mean_anomaly": 154.7556,
        "meta_ephemeris_type": 0,
        "meta_classification_type": "U",
        "meta_norad_cat_id": 66651,
        "meta_element_set_no": 999,
        "meta_rev_at_epoch": 419,
        "meta_bstar": 0.00044643,
        "meta_mean_motion_dot": 4.462e-05,
        "meta_mean_motion_ddot": 0,
        "tle_line1": "1 66651U 25274B   25358.75754191  .00004462  00000+0  44643-3 0  9995",
        "tle_line2": "2 66651  97.7402 285.7287 0011275 205.3112 154.7556 14.91882625  4197"
      },
      "geometry": {
        "type": "Point",
        "coordinates": [
          -76.78822333604168,
          20.506267525088546
        ]
      }
    },
    {
      "type": "Feature",
      "properties": {
        "norad_id": 66652,
        "name": "2025-274C",
        "group": "last-30-days",
        "lat": 32.277940437458696,
        "lon": -78.79432572576897,
        "alt_km": 597.4780466799793,
        "timestamp": "2025-12-25T03:55:54.952240+00:00",
        "meta_object_name": "2025-274C",
        "meta_object_id": "2025-274C",
        "meta_epoch": "2025-12-24T18:07:41.820096",
        "meta_mean_motion": 14.91968899,
        "meta_eccentricity": 0.0010824,
        "meta_inclination": 97.7406,
        "meta_ra_of_asc_node": 285.7331,
        "meta_arg_of_pericenter": 212.2787,
        "meta_mean_anomaly": 147.777,
        "meta_ephemeris_type": 0,
        "meta_classification_type": "U",
        "meta_norad_cat_id": 66652,
        "meta_element_set_no": 999,
        "meta_rev_at_epoch": 419,
        "meta_bstar": 0.00035722,
        "meta_mean_motion_dot": 3.566e-05,
        "meta_mean_motion_ddot": 0,
        "tle_line1": "1 66652U 25274C   25358.75534514  .00003566  00000+0  35722-3 0  9993",
        "tle_line2": "2 66652  97.7406 285.7331 0010824 212.2787 147.7770 14.91968899  4194"
      },
      "geometry": {
        "type": "Point",
        "coordinates": [
          -78.79432572576897,
          32.277940437458696
        ]
      }
    },
    {
      "type": "Feature",
      "properties": {
        "norad_id": 66653,
        "name": "2025-274D",
        "group": "last-30-days",
        "lat": 32.63020845203341,
        "lon": -78.86202040710064,
        "alt_km": 598.092850404646,
        "timestamp": "2025-12-25T03:55:54.952250+00:00",
        "meta_object_name": "2025-274D",
        "meta_object_id": "2025-274D",
        "meta_epoch": "2025-12-24T16:31:01.121952",
        "meta_mean_motion": 14.91960276,
        "meta_eccentricity": 0.0011798,
        "meta_inclination": 97.7404,
        "meta_ra_of_asc_node": 285.6669,
        "meta_arg_of_pericenter": 209.0619,
        "meta_mean_anomaly": 150.9944,
        "meta_ephemeris_type": 0,
        "meta_classification_type": "U",
        "meta_norad_cat_id": 66653,
        "meta_element_set_no": 999,
        "meta_rev_at_epoch": 418,
        "meta_bstar": 0.00028251,
        "meta_mean_motion_dot": 2.808e-05,
        "meta_mean_motion_ddot": 0,
        "tle_line1": "1 66653U 25274D   25358.68820743  .00002808  00000+0  28251-3 0  9995",
        "tle_line2": "2 66653  97.7404 285.6669 0011798 209.0619 150.9944 14.91960276  4184"
      },
      "geometry": {
        "type": "Point",
        "coordinates": [
          -78.86202040710064,
          32.63020845203341
        ]
      }
    }
  ]
}